name,address,type,town,state,zip,website,facebook,instagram,tiktok,main_image
Fugitive Bluff Brewery & Winery,3166 Hwy B,Business,Berger,MO,63014,,,,,
Archie's House,2515 Highway B,Business,Berger,MO,63014,archieshouse.com,,,,
"Bright Side Blooms, LLC",,Business,Berger,MO,,www.facebook.com/brightsidebloomsllc,,,,
Jam Hut RV Park and Bar,12321 Hwy 100,Business,Berger,MO,63014,www.jamhut.com,,,,
Flamingo Key LLC bnb,,Business,New Haven,MO,,flamingokeyguesthouse.com,Flamingo Key,Flamingo Key,,
April Farms 1842,,Business,New Haven,MO,,,,,,
Jack Flash,,Business,Gerald,MO,,,,,,
The Blank Canvas Gallery & Studio,,Business,Hermann,MO,,www.theblankcanvashermann.com,https://www.facebook.com/groups/173088983800535/user/100063463693592/,,,
Hermann Grain Bins BnB & Retreat Center,2420 Hwy 19 S,Business,Hermann,MO,65041,www.hermanngrainbinsbnb.com,Hermann Grain Bins BnB,Hermann Grain Binns BnB,,
the Joerling Group Real Estate Co,,Business,Hermann,MO,65041,www.joerlinggroup.com,donna.joerling.1 fb,donna joerling missouri realtor,,
"Zia, Hermann",1221 Lovers Ln,Business,Hermann,MO,65041,www.ZiaMyRetreat.com,zia my retreat,zia my retreat,,
Strassner Furniture,,Business,Hermann,MO,65041,www.strassnerfurniture.com,strassner furniture fb,strassner furniture ig,Strassner furniture,
Old Vine Kitchen Emporium,210 Schiller,Business,Hermann,MO,65041,www.oldvinekitchenemporium.com,,,,
Bee Creative,,Business,New Haven,MO,63068,www.beecreativenh.com,bee creative,bee creative,,
Tanglewood Cottage,9442B Hwy 100,Business,New Haven,MO,63068,,,,,
Avant Gardens,,Business,New Haven,MO,63068,www.avantgardenscsa.com,avant gardens csa,,,
Elizabeth's Gifts & Antiques,,Business,New Haven,MO,63068,,,,,
Central Hotel,,Business,New Haven,MO,63068,www.centralhotel.com,central hotel,,,
The Liquor Cabinet,,Business,New Haven,MO,,,,,,
"Zia, New Haven",115 FRONT,Business,New Haven,MO,63068,www.ZiaMyRetreat.com,zia my retreat,zia my retreat,,
Yeates Schoolhouse,,Business,New Haven,MO,,yeates-schoolhouse.com,,,,
Robller Vineyard,,Business,New Haven,MO,63068,,,,,
Trinity Hill B&B,901 MAUPIN,Business,New Haven,MO,63068,,,,,
Pinckney Bend B&B,449 VINE STEET,Business,New Haven,MO,63068,,,,,
The Walt Theatre,,Business,New Haven,MO,,,,,,
Old World Heirlooms Antiques,,Business,Rosebud,MO,63091,www.oldworldheirlooms.com,,,,
Clancy's Marketplace & Bakery,222 Hwy 50,Business,Rosebud,MO,63091,,Clancys marketplace,Clancys_Marketplace,,
Rosebud Guest House,221 A Hwy 50,Business,Rosebud,MO,63091,www.stayrosebud.com,Rosebud Guesthouse,Rosebud Guesthouse,,
Copper June's,,Business,Rosebud,MO,,www.copperjunes.com,copperjune's,,,
Red Brick Antiques,,Business,Rosebud,MO,,,,,,
Loeb's Mill Bar & Grill,,Business,Rosebud,MO,,,,,,
White Mule Winery,,Business,Rosebud,MO,63091,,,,,
The Rusty Gate,,Business,Rosebud,MO,,,zelch farm,rachels rustic room,,
Rachel's Rustic Room & Boutique,3564 Highway T,Business,Rosebud,MO,63091,www.thesisterboutique.com,,,,
Zelch Farms / Zelch Family Homestead,2410 Stony Hill Rd,Business,Stony Hill,MO,65061,,,,,
Window to My World,,Business,Stony Hill,MO,,,,,,
Lady May's General Store & Guest Suites,,Business,Stony Hill,MO,,,,,,
Purdy's Stony Hill Hall,,Business,Stony Hill,MO,,,,,,
