name,address,type,town,state,zip,phone,website,facebook,instagram,tiktok,sunday,monday,tuesday,wednesday,thursday,friday ,saturday,
Archie's House,3515 Hwy B,Vacation Rental,Berger,MO,63014,,archieshouse.com,Archie's House,,,by availability,by availability,by availability,by availability,by availability,by availability,by availability,
"Berger Guesthouse, LLC (At Triple Creek Farm) ",3691 Hwy B,vacation Rental,Berger,MO,63014,573-834-2597,bergerguesthouse.com,,,,by availability,by availability,by availability,by availability,by availability,by availability,by availability,
"Bright Side Blooms, LLC",,Flower Farm ,Berger,MO,63014,,,www.facebook.com/brightsidebloomsllc,,,by appointment,by appointment,by appointment,by appointment,by appointment,by appointment,by appointment,
Fugitive Bluff Brewery & Winery,3166 Hwy B,"Brewery, Winery, Restaurant ",Berger,MO,63014,,fugitivebluff.com,,,,10am-4pm,closed,closed,closed,10am-4pm,10am-6pm,10am-6pm,starting 2/20/25
Jam Hut RV Park and Bar,12321 Hwy 100,Business,Berger,MO,63014,,www.jamhut.com,,,,10am-6pm,closed,9am-5pm,9am-5pm,,,,
"Bistro at the Mill, LLC",315 S. Pine St,Restaurant ,Gerald,MO,63037,573-764-2224,bistroatthemill.com,Bistro at the Mill,,,11am-7pm,11am-7pm,11am-7pm,11am-7pm,11am-7pm,11am-8pm,11am-8pm,
Jack Flash,,Business,Gerald,MO,,,,,,,10am-6pm,closed,9am-5pm,9am-5pm,,,,
Rock Island Trail Retreat,280 E. Canaan Rd,Vacation Rental  ,Gerald,MO,63037,573-462-0991,www.rockislandtrailretreat.com,Rock Island Trail Retreat,,,8am-9pm,8am-9pm,8am-9pm,8am-9pm,8am-9pm,8am-9pm,8am-9pm,
Old Vine Kitchen Emporium,210 Schiller,Boutique / Kithcen ,Hermann,MO,65041,,www.oldvinekitchenemporium.com,old vine kitchen emporium,,,10am-4pm,10am-2pm,11am-3pm,11am-5pm,11am-5pm,11am-5pm,10am-6pm,may change with seasons
Strassner Furniture,,Furniture Store and Home Decor,Hermann,MO,65041,,www.strassnerfurniture.com,strassner furniture fb,strassner furniture ig,Strassner furniture,10am-6pm,closed,9am-5pm,9am-5pm,,,,
The Blank Canvas Gallery & Studio,,Business,Hermann,MO,,,www.theblankcanvashermann.com,https://www.facebook.com/groups/173088983800535/user/100063463693592/,,,10am-6pm,closed,9am-5pm,9am-5pm,,,,
The Joerling Group Real Estate Co,,Real Estate,Hermann,MO,65041,,www.joerlinggroup.com,donna.joerling.1 fb,donna joerling missouri realtor,,by appointment,by appointment,by appointment,by appointment,by appointment,by appointment,by appointment,
"Zia, Hermann",1221 Lovers Ln,B&B,Hermann,MO,65041,,www.ZiaMyRetreat.com,zia my retreat,zia my retreat,,by availability,by availability,by availability,by availability,by availability,by availability,by availability,
April Farms 1842,,Business,New Haven,MO,,,,,,,10am-6pm,closed,9am-5pm,9am-5pm,,,,
Avant Gardens,137A Front St,CSA  & online farmer's market,New Haven,MO,63068,,www.avantgardenscsa.com,avant gardens csa,,,closed,closed,closed,closed,4pm-6pm,closed ,closed ,
Bee Creative,123 Front St,Boutique / Custom Printing & Embroidery,New Haven,MO,63068,,www.beecreativenh.com,bee creative,bee creative,,by appointment,by appointment,by appointment,10am-5pm,10am-5pm,10am-5pm,10am-3pm,
Camp Trinity,439 Camp Trinity Dr,Christian Retreat Center,New Haven,MO,63068,573-237-3588,www.camptrinity.org,,,,by availability,by availability,by availability,by availability,by availability,by availability,by availability,
Central Hotel,1017 Maupin Ave,Vacation Rental  ,New Haven,MO,63068,,www.centralhotelnh.com,central hotel,,,by availability,by availability,by availability,by availability,by availability,by availability,by availability,
Elizabeth's Gifts & Antiques,139 Front St, Boutique / Antiques,New Haven,MO,63068,573-237-5733 ,,Elizabeth's Gifts & Antiques,,,11am-5pm,closed,closed,12pm-5pm,12pm-5pm,12pm-5pm,10am-5pm ,
Hawk Haven Farms,9231 Hwy 100,Vacation Rental and Event Venue,New Haven,MO,63068,,,Hawk Haven Farms ,,,by availability,by availability,by availability,by availability,by availability,by availability,by availability,
New Haven Area Chamber of Commerce,,,New Haven,MO ,63068,,newhavenmochamber.com,New Haven Area Chamber of Commerce ,,,n/a,n/a,n/a,n/a,n/a,n/a,n/a,
Pinckney Bend B&B,449 VINE STEET,Vacation Rental,New Haven,MO,63068,,www.PinckneyBendBedandBreakfast.com,pinckney bend bed and breakfast,,,by availability,by availability,by availability,by availability,by availability,by availability,by availability,
Robller Vineyard,275 Robller Vineyard Rd,Vineyard and Winery,New Haven,MO,63068,,www.RobllerWines.com,robller vineyard ,,,12pm-4pm,10am-4pm,10am-4pm,10am-4pm,10am-4pm,10am-4pm,10am-5pm,
Tanglewood Cottage,9442B Hwy 100,Business,New Haven,MO,63068,,,,,,10am-6pm,9am-5pm,closed,9am-5pm,,,,
The Liquor Cabinet,,Business,New Haven,MO,,,,,,,10am-6pm,9am-5pm,closed,9am-5pm,,,,
Trinity Hill B&B,901 MAUPIN,Vacation Rental,New Haven,MO,63068,,www.TrinityHillBB.com,trinity hill bed and breakfast ,,,by availability,by availability,by availability,by availability,by availability,by availability,by availability,
Walt Theatre,111 Front St,Movie Theater,New Haven,MO,63068,573-694-1267,www.walttheatre.com,Walt Theatre,,,5:00 PM,closed,closed,closed,closed,7:00 PM,7:00 PM,"show times, doors open 30 minutes prior"
Yeates Schoolhouse,3203 Yeates Rd ,Vacation Rental,New Haven,MO,63068,,yeates-schoolhouse.com,,,,by availability,by availability,by availability,by availability,by availability,by availability,by availability,
"Zia, New Haven",115 FRONT,Vacation Rental / Retreats / Wellness Center,New Haven,MO,63068,,www.ZiaMyRetreat.com,zia my retreat,zia my retreat,,by appointment,by appointment,by appointment,by appointment,by appointment,by appointment,by appointment,
Lavender Rhapsody,1439 Hwy  NN,Flower Farm ,Owensville,MO,,,www.LavenderRhapsody.com,"lavender rhapsody, llc",,,,,,,10am-6pm,10am-6pm,10am-6pm,May - June
White Mule Winery,2087 Hwy 50,Winery / Restaurant,Owensville,MO,65066,573-764-4800,www.whitemulewinery.com,White Mule Winery,,,11am-5pm,closed ,11am-5pm,11am-5pm,11am-5pm,11am-8:30pm,11am-8:30pm,
Clancy's Marketplace & Bakery,222 Hwy 50,Marketplace & Bakery,Rosebud,MO,63091,,,Clancys marketplace,Clancys_Marketplace,,12pm-3pm,closed ,closed,closed,10am-5pm,10am-5pm,9am-12pm,
Copper June's,227 Hwy 50,Boutique,Rosebud,MO,63091,,www.copperjunes.com,copperjune's,Copper Junes ,,12pm-4pm,closed ,closed,closed,,11am-4pm,10am-4pm,
Loeb's Mill Bar & Grill,,Business,Rosebud,MO,,,,,,,10am-6pm,9am-5pm,closed,9am-5pm,,,,
M. Clancy BBQ and Pub Fare,211 Hwy 50,Restaurant & Bar,Rosebud,MO,63091,,,M. Clancy BBQ and Pub Fare,,,closed,closed ,3pm-8pm,11am-8pm,11am-8pm,11am-9pm,closed,
Old World Heirlooms,227 Hwy 50 ,Antiques,Rosebud,MO,63091,,www.oldworldheirlooms.com,old world heirlooms ,,,12pm-4pm,closed ,closed,closed,closed,10am-5pm,10am-5pm,
Rachel's Rustic Room & Boutique,214 Hwy 50,Boutique,Rosebud,MO,63091,,www.thesisterboutique.com,Rachel's Rustic Room & Boutique,rachels rustic room,,12pm-5pm,10am-5pm,10am-5pm,10am-5pm,10am-5pm,10am-5pm,10am-5pm,
Red Brick Antiques,215 Hwy 50,Antiques  & Bakery ,Rosebud,MO,63091,573-764-5121,,Red Brick Antiques and More,,,12pm-4pm,closed ,closed,closed,closed,10am-4pm,10am-4pm,
Rosebud Guest House,221 A Hwy 50,Vacation Rental,Rosebud,MO,63091,,www.stayrosebud.com,Rosebud Guesthouse,Rosebud Guesthouse,,by availability ,by availability ,by availability ,by availability ,by availability ,by availability ,by availability ,
The Rusty Gate Antique Mall,204 Hwy 50,Antiques,Rosebud,MO,,,,The Rusty Gate Antique Mall,,,9am-5pm,9am-5pm,9am-5pm,9am-5pm,9am-5pm,9am-5pm,9am-5pm,
"Flamingo Key B&B, LLC ",9420 Excelsior Rd,Vacation Rental,Stony Hill,MO,,,,Flamingo Key BnB,Flamingo Key,,by availability,by availability,by availability,by availability,by availability,by availability,,
Lady May's General Store & Guest Suites,4414 Hwy E,General Store / Vacation Rental / Event Space ,Stony Hill,MO,,,,Lady May's General Store and Guest Suites,,,tbd,tbd,tbd,tbd,tbd,tbd,tbd,openin spring 2025
Purdy's Stony Hill Hall,2146 Stonyhill Rd,Restaurant & Bar,Stony Hill,MO,,,,Purdy's Stony Hill Hall,,,11am-8pm,closed ,closed,closed,3pm-8pm,11am-9pm,11am-9pm,
Window to My World,,Business,Stony Hill,MO,,,,,,,by appointment,by appointment,by appointment,by appointment,by appointment,by appointment,by appointment,573-368-1523
Zelch Farms / Zelch Family Homestead,3564 Highway T,Business,Stony Hill,MO,65061,,,Zelch Family Homestead,,,10am-6pm,9am-5pm,closed,9am-5pm,,,,
Hermann Grain Bins BnB & Retreat Center,2420 Hwy 19 S,Vacation Rental / Retreats / Event Center,Swiss ,MO,65041,,www.hermanngrainbinsbnb.com,Hermann Grain Bins BnB,Hermann Grain Bins BnB,,by availability,by availability,by availability,by availability,by availability,by availability,by availability,starting 3/2025
"J & T Trailers, LLC",2073 S Hwy 19,Trailer ,Swiss ,MO,65041,,www.jt-trailers.com,J & T Trailers ,,,closed,8am-4:30pm,8am-4:30pm,8am-4:30pm,8am-4:30pm,8am-4:30pm,8am-12pm ,closed saturday in Jan & Feb 